{
  "type": "FeatureCollection",
  "features": [
    {
      "type": "Feature",
      "properties": {
        "norad_id": 66647,
        "name": "COSMOS 2597 (RODNIK-S 22)",
        "group": "last-30-days",
        "lat": -79.30415314064328,
        "lon": -121.40147165039997,
        "alt_km": 1499.6859312265324,
        "timestamp": "2025-12-18T13:51:48.379457+00:00",
        "meta_object_name": "COSMOS 2597 (RODNIK-S 22)",
        "meta_object_id": "2025-273A",
        "meta_epoch": "2025-12-18T06:34:20.169984",
        "meta_mean_motion": 12.41952042,
        "meta_eccentricity": 0.00076554,
        "meta_inclination": 82.4991,
        "meta_ra_of_asc_node": 283.0126,
        "meta_arg_of_pericenter": 273.6334,
        "meta_mean_anomaly": 86.387,
        "meta_ephemeris_type": 0,
        "meta_classification_type": "U",
        "meta_norad_cat_id": 66647,
        "meta_element_set_no": 999,
        "meta_rev_at_epoch": 282,
        "meta_bstar": -1.3314266e-05,
        "meta_mean_motion_dot": 8e-08,
        "meta_mean_motion_ddot": 0,
        "tle_line1": "1 66647U 25273A   25352.27384456  .00000008  00000+0 -13314-4 0  9998",
        "tle_line2": "2 66647  82.4991 283.0126 0007655 273.6334  86.3870 12.41952042  2821"
      },
      "geometry": {
        "type": "Point",
        "coordinates": [
          -121.40147165039997,
          -79.30415314064328
        ]
      }
    },
    {
      "type": "Feature",
      "properties": {
        "norad_id": 66648,
        "name": "COSMOS 2598 (RODNIK-S 23)",
        "group": "last-30-days",
        "lat": -19.584386562940512,
        "lon": -79.8673333794702,
        "alt_km": 1500.7298103505036,
        "timestamp": "2025-12-18T13:51:48.379470+00:00",
        "meta_object_name": "COSMOS 2598 (RODNIK-S 23)",
        "meta_object_id": "2025-273B",
        "meta_epoch": "2025-12-18T06:14:38.403744",
        "meta_mean_motion": 12.43233499,
        "meta_eccentricity": 0.00080466,
        "meta_inclination": 82.503,
        "meta_ra_of_asc_node": 283.0151,
        "meta_arg_of_pericenter": 223.6497,
        "meta_mean_anomaly": 136.3947,
        "meta_ephemeris_type": 0,
        "meta_classification_type": "U",
        "meta_norad_cat_id": 66648,
        "meta_element_set_no": 999,
        "meta_rev_at_epoch": 282,
        "meta_bstar": 2.371943e-06,
        "meta_mean_motion_dot": 1e-07,
        "meta_mean_motion_ddot": 0,
        "tle_line1": "1 66648U 25273B   25352.26016671  .00000010  00000+0  23719-5 0  9992",
        "tle_line2": "2 66648  82.5030 283.0151 0008046 223.6497 136.3947 12.43233499  2826"
      },
      "geometry": {
        "type": "Point",
        "coordinates": [
          -79.8673333794702,
          -19.584386562940512
        ]
      }
    },
    {
      "type": "Feature",
      "properties": {
        "norad_id": 66649,
        "name": "COSMOS 2599 (RODNIK-S 24)",
        "group": "last-30-days",
        "lat": -61.30264544783667,
        "lon": 116.7639466412862,
        "alt_km": 1504.261751437516,
        "timestamp": "2025-12-18T13:51:48.379481+00:00",
        "meta_object_name": "COSMOS 2599 (RODNIK-S 24)",
        "meta_object_id": "2025-273C",
        "meta_epoch": "2025-12-18T06:45:29.557440",
        "meta_mean_motion": 12.4115099,
        "meta_eccentricity": 0.00062778,
        "meta_inclination": 82.5048,
        "meta_ra_of_asc_node": 283.0332,
        "meta_arg_of_pericenter": 264.9981,
        "meta_mean_anomaly": 95.0381,
        "meta_ephemeris_type": 0,
        "meta_classification_type": "U",
        "meta_norad_cat_id": 66649,
        "meta_element_set_no": 999,
        "meta_rev_at_epoch": 282,
        "meta_bstar": -3.2600663e-05,
        "meta_mean_motion_dot": 5e-08,
        "meta_mean_motion_ddot": 0,
        "tle_line1": "1 66649U 25273C   25352.28159210  .00000005  00000+0 -32601-4 0  9996",
        "tle_line2": "2 66649  82.5048 283.0332 0006277 264.9981  95.0381 12.41150990  2822"
      },
      "geometry": {
        "type": "Point",
        "coordinates": [
          116.7639466412862,
          -61.30264544783667
        ]
      }
    },
    {
      "type": "Feature",
      "properties": {
        "norad_id": 66650,
        "name": "BEE-1000",
        "group": "last-30-days",
        "lat": -56.94363162319089,
        "lon": -68.2791460987187,
        "alt_km": 597.5591627205258,
        "timestamp": "2025-12-18T13:51:48.379494+00:00",
        "meta_object_name": "BEE-1000",
        "meta_object_id": "2025-274A",
        "meta_epoch": "2025-12-18T06:04:20.956512",
        "meta_mean_motion": 14.9168004,
        "meta_eccentricity": 0.00106199,
        "meta_inclination": 97.7399,
        "meta_ra_of_asc_node": 279.3395,
        "meta_arg_of_pericenter": 230.8945,
        "meta_mean_anomaly": 129.133,
        "meta_ephemeris_type": 0,
        "meta_classification_type": "U",
        "meta_norad_cat_id": 66650,
        "meta_element_set_no": 999,
        "meta_rev_at_epoch": 322,
        "meta_bstar": 0.00011571138,
        "meta_mean_motion_dot": 1.109e-05,
        "meta_mean_motion_ddot": 0,
        "tle_line1": "1 66650U 25274A   25352.25302033  .00001109  00000+0  11571-3 0  9996",
        "tle_line2": "2 66650  97.7399 279.3395 0010619 230.8945 129.1330 14.91680040  3224"
      },
      "geometry": {
        "type": "Point",
        "coordinates": [
          -68.2791460987187,
          -56.94363162319089
        ]
      }
    },
    {
      "type": "Feature",
      "properties": {
        "norad_id": 66651,
        "name": "2025-274B",
        "group": "last-30-days",
        "lat": -49.05695494428607,
        "lon": -71.3207943505809,
        "alt_km": 597.9693304265038,
        "timestamp": "2025-12-18T13:51:48.379504+00:00",
        "meta_object_name": "2025-274B",
        "meta_object_id": "2025-274B",
        "meta_epoch": "2025-12-18T06:02:13.488864",
        "meta_mean_motion": 14.91837407,
        "meta_eccentricity": 0.00108818,
        "meta_inclination": 97.7395,
        "meta_ra_of_asc_node": 279.3399,
        "meta_arg_of_pericenter": 229.9882,
        "meta_mean_anomaly": 130.0383,
        "meta_ephemeris_type": 0,
        "meta_classification_type": "U",
        "meta_norad_cat_id": 66651,
        "meta_element_set_no": 999,
        "meta_rev_at_epoch": 322,
        "meta_bstar": 0.00024499417,
        "meta_mean_motion_dot": 2.42e-05,
        "meta_mean_motion_ddot": 0,
        "tle_line1": "1 66651U 25274B   25352.25154501  .00002420  00000+0  24499-3 0  9992",
        "tle_line2": "2 66651  97.7395 279.3399 0010881 229.9882 130.0383 14.91837407  3225"
      },
      "geometry": {
        "type": "Point",
        "coordinates": [
          -71.3207943505809,
          -49.05695494428607
        ]
      }
    },
    {
      "type": "Feature",
      "properties": {
        "norad_id": 66652,
        "name": "2025-274C",
        "group": "last-30-days",
        "lat": -39.499281276709276,
        "lon": -73.89739123830846,
        "alt_km": 597.7034955789959,
        "timestamp": "2025-12-18T13:51:48.379515+00:00",
        "meta_object_name": "2025-274C",
        "meta_object_id": "2025-274C",
        "meta_epoch": "2025-12-18T05:59:38.229792",
        "meta_mean_motion": 14.91932483,
        "meta_eccentricity": 0.00104957,
        "meta_inclination": 97.7399,
        "meta_ra_of_asc_node": 279.3435,
        "meta_arg_of_pericenter": 236.9131,
        "meta_mean_anomaly": 123.108,
        "meta_ephemeris_type": 0,
        "meta_classification_type": "U",
        "meta_norad_cat_id": 66652,
        "meta_element_set_no": 999,
        "meta_rev_at_epoch": 322,
        "meta_bstar": 0.00019550509,
        "meta_mean_motion_dot": 1.924e-05,
        "meta_mean_motion_ddot": 0,
        "tle_line1": "1 66652U 25274C   25352.24974803  .00001924  00000+0  19551-3 0  9998",
        "tle_line2": "2 66652  97.7399 279.3435 0010495 236.9131 123.1080 14.91932483  3224"
      },
      "geometry": {
        "type": "Point",
        "coordinates": [
          -73.89739123830846,
          -39.499281276709276
        ]
      }
    },
    {
      "type": "Feature",
      "properties": {
        "norad_id": 66653,
        "name": "2025-274D",
        "group": "last-30-days",
        "lat": -39.0388376787787,
        "lon": -74.00291953642828,
        "alt_km": 598.2042847719922,
        "timestamp": "2025-12-18T13:51:48.379525+00:00",
        "meta_object_name": "2025-274D",
        "meta_object_id": "2025-274D",
        "meta_epoch": "2025-12-18T05:59:30.809760",
        "meta_mean_motion": 14.91932581,
        "meta_eccentricity": 0.00114283,
        "meta_inclination": 97.7397,
        "meta_ra_of_asc_node": 279.3432,
        "meta_arg_of_pericenter": 233.1487,
        "meta_mean_anomaly": 126.8685,
        "meta_ephemeris_type": 0,
        "meta_classification_type": "U",
        "meta_norad_cat_id": 66653,
        "meta_element_set_no": 999,
        "meta_rev_at_epoch": 322,
        "meta_bstar": 0.00014178633,
        "meta_mean_motion_dot": 1.38e-05,
        "meta_mean_motion_ddot": 0,
        "tle_line1": "1 66653U 25274D   25352.24966215  .00001380  00000+0  14179-3 0  9994",
        "tle_line2": "2 66653  97.7397 279.3432 0011428 233.1487 126.8685 14.91932581  3220"
      },
      "geometry": {
        "type": "Point",
        "coordinates": [
          -74.00291953642828,
          -39.0388376787787
        ]
      }
    }
  ]
}